SENTINEL-6              
1 46984U 20086A   24109.89394174 -.00000032  00000+0  12677-3 0  9999
2 46984  66.0433 334.4245 0007781 271.2676  88.7448 12.80929990159232
